start=new Date('2021-10-22T00:00:00.000Z').valueOf();
sats=[{"MEAN_ANOMALY":"275.0272","SITE":"AFETR","FILE":"3176920","OBJECT_ID":"2021-044C","MEAN_MOTION_DDOT":"0.0000000000000","GP_ID":"187842084","OBJECT_TYPE":"PAYLOAD","COUNTRY_CODE":"US","NORAD_CAT_ID":"48640","CLASSIFICATION_TYPE":"U","BSTAR":"0.00005464200000","INCLINATION":"53.0562","MEAN_ELEMENT_THEORY":"SGP4","REF_FRAME":"TEME","REV_AT_EPOCH":"2262","TLE_LINE1":"1 48640U 21044C   21294.72160460  .00000532  00000-0  54642-4 0  9992","APOAPSIS":"548.344","MEAN_MOTION_DOT":"0.00000532","TIME_SYSTEM":"UTC","EPHEMERIS_TYPE":"0","RA_OF_ASC_NODE":"99.1400","ELEMENT_SET_NO":"999","PERIAPSIS":"546.076","LAUNCH_DATE":"2021-05-26","EPOCH":"2021-10-21T17:19:06.637440","SEMIMAJOR_AXIS":"6925.345","TLE_LINE2":"2 48640  53.0562  99.1400 0001637  85.0903 275.0272 15.06401179 22621","MEAN_MOTION":"15.06401179","ARG_OF_PERICENTER":"85.0903","DECAY_DATE":null,"ECCENTRICITY":"0.00016370","RCS_SIZE":"LARGE","OBJECT_NAME":"STARLINK-2736","PERIOD":"95.592","CENTER_NAME":"EARTH"},{"RCS_SIZE":"LARGE","ECCENTRICITY":"0.00015940","PERIOD":"95.593","CENTER_NAME":"EARTH","OBJECT_NAME":"STARLINK-2754","RA_OF_ASC_NODE":"103.3744","EPHEMERIS_TYPE":"0","TIME_SYSTEM":"UTC","TLE_LINE1":"1 48641U 21044D   21294.89349721 -.00001473  00000-0 -80021-4 0  9997","REV_AT_EPOCH":"2258","APOAPSIS":"548.336","MEAN_MOTION_DOT":"-0.00001473","MEAN_MOTION":"15.06393851","TLE_LINE2":"2 48641  53.0553 103.3744 0001594  92.2028 267.9144 15.06393851 22581","ARG_OF_PERICENTER":"92.2028","DECAY_DATE":null,"PERIAPSIS":"546.129","ELEMENT_SET_NO":"999","LAUNCH_DATE":"2021-05-26","SEMIMAJOR_AXIS":"6925.367","EPOCH":"2021-10-21T21:26:38.158944","CLASSIFICATION_TYPE":"U","OBJECT_TYPE":"PAYLOAD","NORAD_CAT_ID":"48641","COUNTRY_CODE":"US","MEAN_ELEMENT_THEORY":"SGP4","REF_FRAME":"TEME","INCLINATION":"53.0553","BSTAR":"-0.00008002100000","OBJECT_ID":"2021-044D","MEAN_ANOMALY":"267.9144","FILE":"3176920","SITE":"AFETR","GP_ID":"187841868","MEAN_MOTION_DDOT":"0.0000000000000"},{"LAUNCH_DATE":"2021-05-26","EPOCH":"2021-10-21T21:46:29.865504","SEMIMAJOR_AXIS":"6925.379","PERIAPSIS":"546.005","ELEMENT_SET_NO":"999","DECAY_DATE":null,"TLE_LINE2":"2 48642  53.0544 103.3041 0001788  85.9836 274.1358 15.06390179 22580","ARG_OF_PERICENTER":"85.9836","MEAN_MOTION":"15.06390179","APOAPSIS":"548.482","MEAN_MOTION_DOT":"0.00000399","TLE_LINE1":"1 48642U 21044E   21294.90729011  .00000399  00000-0  45732-4 0  9998","REV_AT_EPOCH":"2258","TIME_SYSTEM":"UTC","EPHEMERIS_TYPE":"0","RA_OF_ASC_NODE":"103.3041","OBJECT_NAME":"STARLINK-2646","CENTER_NAME":"EARTH","PERIOD":"95.593","ECCENTRICITY":"0.00017880","RCS_SIZE":"LARGE","MEAN_MOTION_DDOT":"0.0000000000000","GP_ID":"187841646","SITE":"AFETR","FILE":"3176920","MEAN_ANOMALY":"274.1358","OBJECT_ID":"2021-044E","BSTAR":"0.00004573200000","INCLINATION":"53.0544","REF_FRAME":"TEME","MEAN_ELEMENT_THEORY":"SGP4","COUNTRY_CODE":"US","NORAD_CAT_ID":"48642","OBJECT_TYPE":"PAYLOAD","CLASSIFICATION_TYPE":"U"},{"RCS_SIZE":"LARGE","ECCENTRICITY":"0.00018810","PERIOD":"95.592","CENTER_NAME":"EARTH","OBJECT_NAME":"STARLINK-2704","TIME_SYSTEM":"UTC","EPHEMERIS_TYPE":"0","RA_OF_ASC_NODE":"105.1744","TLE_LINE1":"1 48643U 21044F   21294.49174651  .00000849  00000-0  75873-4 0  9996","REV_AT_EPOCH":"2252","APOAPSIS":"548.508","MEAN_MOTION_DOT":"0.00000849","TLE_LINE2":"2 48643  53.0546 105.1744 0001881  85.4032 274.7172 15.06402832 22524","MEAN_MOTION":"15.06402832","ARG_OF_PERICENTER":"85.4032","DECAY_DATE":null,"PERIAPSIS":"545.902","ELEMENT_SET_NO":"999","EPOCH":"2021-10-21T11:48:06.898464","LAUNCH_DATE":"2021-05-26","SEMIMAJOR_AXIS":"6925.340","CLASSIFICATION_TYPE":"U","OBJECT_TYPE":"PAYLOAD","COUNTRY_CODE":"US","NORAD_CAT_ID":"48643","MEAN_ELEMENT_THEORY":"SGP4","REF_FRAME":"TEME","BSTAR":"0.00007587300000","INCLINATION":"53.0546","OBJECT_ID":"2021-044F","MEAN_ANOMALY":"274.7172","SITE":"AFETR","FILE":"3176553","GP_ID":"187812799","MEAN_MOTION_DDOT":"0.0000000000000"},{"OBJECT_NAME":"STARLINK-2695","PERIOD":"95.592","CENTER_NAME":"EARTH","ECCENTRICITY":"0.00016910","RCS_SIZE":"LARGE","PERIAPSIS":"546.052","ELEMENT_SET_NO":"999","EPOCH":"2021-10-21T11:42:47.059488","LAUNCH_DATE":"2021-05-26","SEMIMAJOR_AXIS":"6925.358","TLE_LINE2":"2 48644  53.0553 105.1899 0001691  91.1362 268.9820 15.06396888 22521","ARG_OF_PERICENTER":"91.1362","MEAN_MOTION":"15.06396888","DECAY_DATE":null,"TLE_LINE1":"1 48644U 21044G   21294.48804467 -.00000679  00000-0 -26715-4 0  9995","REV_AT_EPOCH":"2252","APOAPSIS":"548.394","MEAN_MOTION_DOT":"-0.00000679","EPHEMERIS_TYPE":"0","TIME_SYSTEM":"UTC","RA_OF_ASC_NODE":"105.1899","BSTAR":"-0.00002671500000","INCLINATION":"53.0553","MEAN_ELEMENT_THEORY":"SGP4","REF_FRAME":"TEME","OBJECT_TYPE":"PAYLOAD","COUNTRY_CODE":"US","NORAD_CAT_ID":"48644","CLASSIFICATION_TYPE":"U","MEAN_MOTION_DDOT":"0.0000000000000","GP_ID":"187812245","MEAN_ANOMALY":"268.9820","SITE":"AFETR","FILE":"3176553","OBJECT_ID":"2021-044G"},{"RCS_SIZE":"LARGE","ECCENTRICITY":"0.00017040","CENTER_NAME":"EARTH","PERIOD":"95.593","OBJECT_NAME":"STARLINK-2733","TIME_SYSTEM":"UTC","EPHEMERIS_TYPE":"0","RA_OF_ASC_NODE":"104.0118","APOAPSIS":"548.452","MEAN_MOTION_DOT":"-0.00000001","REV_AT_EPOCH":"2256","TLE_LINE1":"1 48645U 21044H   21294.74976746 -.00000001  00000-0  18873-4 0  9999","DECAY_DATE":null,"TLE_LINE2":"2 48645  53.0564 104.0118 0001704  87.0161 273.1023 15.06381075 22561","MEAN_MOTION":"15.06381075","ARG_OF_PERICENTER":"87.0161","LAUNCH_DATE":"2021-05-26","SEMIMAJOR_AXIS":"6925.407","EPOCH":"2021-10-21T17:59:39.908544","ELEMENT_SET_NO":"999","PERIAPSIS":"546.091","CLASSIFICATION_TYPE":"U","COUNTRY_CODE":"US","NORAD_CAT_ID":"48645","OBJECT_TYPE":"PAYLOAD","REF_FRAME":"TEME","MEAN_ELEMENT_THEORY":"SGP4","BSTAR":"0.00001887300000","INCLINATION":"53.0564","OBJECT_ID":"2021-044H","SITE":"AFETR","FILE":"3176920","MEAN_ANOMALY":"273.1023","GP_ID":"187841536","MEAN_MOTION_DDOT":"0.0000000000000"},{"INCLINATION":"53.0544","BSTAR":"-0.00006516000000","REF_FRAME":"TEME","MEAN_ELEMENT_THEORY":"SGP4","NORAD_CAT_ID":"48646","COUNTRY_CODE":"US","OBJECT_TYPE":"PAYLOAD","CLASSIFICATION_TYPE":"U","MEAN_MOTION_DDOT":"0.0000000000000","GP_ID":"187841980","FILE":"3176920","SITE":"AFETR","MEAN_ANOMALY":"282.4114","OBJECT_ID":"2021-044J","OBJECT_NAME":"STARLINK-2732","CENTER_NAME":"EARTH","PERIOD":"95.592","ECCENTRICITY":"0.00018200","RCS_SIZE":"LARGE","LAUNCH_DATE":"2021-05-26","EPOCH":"2021-10-21T21:05:24.202176","SEMIMAJOR_AXIS":"6925.321","PERIAPSIS":"545.926","ELEMENT_SET_NO":"999","DECAY_DATE":null,"ARG_OF_PERICENTER":"77.7078","TLE_LINE2":"2 48646  53.0544 103.4341 0001820  77.7078 282.4114 15.06408927 22585","MEAN_MOTION":"15.06408927","APOAPSIS":"548.447","MEAN_MOTION_DOT":"-0.00001252","REV_AT_EPOCH":"2258","TLE_LINE1":"1 48646U 21044J   21294.87875234 -.00001252  00000-0 -65160-4 0  9995","RA_OF_ASC_NODE":"103.4341","TIME_SYSTEM":"UTC","EPHEMERIS_TYPE":"0"},{"ECCENTRICITY":"0.00017150","RCS_SIZE":"LARGE","OBJECT_NAME":"STARLINK-2691","CENTER_NAME":"EARTH","PERIOD":"95.593","APOAPSIS":"548.419","MEAN_MOTION_DOT":"0.00000167","REV_AT_EPOCH":"2256","TLE_LINE1":"1 48647U 21044K   21294.74236821  .00000167  00000-0  30114-4 0  9998","EPHEMERIS_TYPE":"0","TIME_SYSTEM":"UTC","RA_OF_ASC_NODE":"104.0546","EPOCH":"2021-10-21T17:49:00.613344","LAUNCH_DATE":"2021-05-26","SEMIMAJOR_AXIS":"6925.367","PERIAPSIS":"546.044","ELEMENT_SET_NO":"999","DECAY_DATE":null,"TLE_LINE2":"2 48647  53.0552 104.0546 0001715  83.5181 276.6003 15.06394080 22566","ARG_OF_PERICENTER":"83.5181","MEAN_MOTION":"15.06394080","COUNTRY_CODE":"US","NORAD_CAT_ID":"48647","OBJECT_TYPE":"PAYLOAD","CLASSIFICATION_TYPE":"U","BSTAR":"0.00003011400000","INCLINATION":"53.0552","REF_FRAME":"TEME","MEAN_ELEMENT_THEORY":"SGP4","SITE":"AFETR","FILE":"3176920","MEAN_ANOMALY":"276.6003","OBJECT_ID":"2021-044K","MEAN_MOTION_DDOT":"0.0000000000000","GP_ID":"187842306"},{"TIME_SYSTEM":"UTC","EPHEMERIS_TYPE":"0","RA_OF_ASC_NODE":"103.4598","MEAN_MOTION_DOT":"0.00000767","APOAPSIS":"548.423","REV_AT_EPOCH":"2258","TLE_LINE1":"1 48648U 21044L   21294.87411788  .00000767  00000-0  70380-4 0  9995","DECAY_DATE":null,"ARG_OF_PERICENTER":"78.6135","TLE_LINE2":"2 48648  53.0552 103.4598 0001709  78.6135 281.5045 15.06391539 22583","MEAN_MOTION":"15.06391539","SEMIMAJOR_AXIS":"6925.374","LAUNCH_DATE":"2021-05-26","EPOCH":"2021-10-21T20:58:43.784832","PERIAPSIS":"546.056","ELEMENT_SET_NO":"999","RCS_SIZE":"LARGE","ECCENTRICITY":"0.00017090","CENTER_NAME":"EARTH","PERIOD":"95.593","OBJECT_NAME":"STARLINK-2521","OBJECT_ID":"2021-044L","SITE":"AFETR","FILE":"3176920","MEAN_ANOMALY":"281.5045","GP_ID":"187842085","MEAN_MOTION_DDOT":"0.0000000000000","CLASSIFICATION_TYPE":"U","COUNTRY_CODE":"US","NORAD_CAT_ID":"48648","OBJECT_TYPE":"PAYLOAD","REF_FRAME":"TEME","MEAN_ELEMENT_THEORY":"SGP4","BSTAR":"0.00007038000000","INCLINATION":"53.0552"},{"DECAY_DATE":null,"TLE_LINE2":"2 48649  53.0522 104.0806 0001527  83.9582 276.1581 15.06399049 22559","ARG_OF_PERICENTER":"83.9582","MEAN_MOTION":"15.06399049","EPOCH":"2021-10-21T17:43:41.850912","LAUNCH_DATE":"2021-05-26","SEMIMAJOR_AXIS":"6925.351","PERIAPSIS":"546.159","ELEMENT_SET_NO":"999","RA_OF_ASC_NODE":"104.0806","TIME_SYSTEM":"UTC","EPHEMERIS_TYPE":"0","APOAPSIS":"548.274","MEAN_MOTION_DOT":"0.00001243","TLE_LINE1":"1 48649U 21044M   21294.73867883  .00001243  00000-0  10230-3 0  9999","REV_AT_EPOCH":"2255","CENTER_NAME":"EARTH","PERIOD":"95.592","OBJECT_NAME":"STARLINK-2673","RCS_SIZE":"LARGE","ECCENTRICITY":"0.00015270","GP_ID":"187841869","MEAN_MOTION_DDOT":"0.0000000000000","OBJECT_ID":"2021-044M","FILE":"3176920","SITE":"AFETR","MEAN_ANOMALY":"276.1581","REF_FRAME":"TEME","MEAN_ELEMENT_THEORY":"SGP4","INCLINATION":"53.0522","BSTAR":"0.00010230000000","CLASSIFICATION_TYPE":"U","NORAD_CAT_ID":"48649","COUNTRY_CODE":"US","OBJECT_TYPE":"PAYLOAD"}];
